{"type": "FeatureCollection", "features": [ {"type": "Feature", "properties": {"norad_id": 30173, "name": "FENGYUN 1C DEB", "group": "fengyun-1c-debris", "lat": -22.637624321671, "lon": 51.19988778126663, "alt_km": 805.8868929201863, "timestamp": "2025-12-02T15:49:07.464095+00:00", "meta": {"OBJECT_NAME": "FENGYUN 1C DEB", "OBJECT_ID": "1999-025UE", "EPOCH": "2025-12-02T04:16:36.503328", "MEAN_MOTION": 14.11292894, "ECCENTRICITY": 0.00797398, "INCLINATION": 98.9782, "RA_OF_ASC_NODE": 46.9388, "ARG_OF_PERICENTER": 318.882, "MEAN_ANOMALY": 95.9853, "EPHEMERIS_TYPE": 0, "CLASSIFICATION_TYPE": "U", "NORAD_CAT_ID": 30173, "ELEMENT_SET_NO": 999, "REV_AT_EPOCH": 96400, "BSTAR": 0.0015712939, "MEAN_MOTION_DOT": 2.88e-05, "MEAN_MOTION_DDOT": 0}, "tle": {"line1": "1 30173U 99025UE  25336.17820027  .00002880  00000+0  15713-2 0  9991", "line2": "2 30173  98.9782  46.9388 0079739 318.8820  95.9853 14.11292894964001"}}, "geometry": {"type": "Point", "coordinates": [51.19988778126663, -22.637624321671]}}, {"type": "Feature", "properties": {"norad_id": 30174, "name": "FENGYUN 1C DEB", "group": "fengyun-1c-debris", "lat": 0.6402879510324238, "lon": 124.45215085812836, "alt_km": 630.8639838219469, "timestamp": "2025-12-02T15:49:07.464105+00:00", "meta": {"OBJECT_NAME": "FENGYUN 1C DEB", "OBJECT_ID": "1999-025UF", "EPOCH": "2025-12-02T07:59:04.879104", "MEAN_MOTION": 14.79903137, "ECCENTRICITY": 0.00178915, "INCLINATION": 98.776, "RA_OF_ASC_NODE": 124.1947, "ARG_OF_PERICENTER": 84.6234, "MEAN_ANOMALY": 338.3207, "EPHEMERIS_TYPE": 0, "CLASSIFICATION_TYPE": "U", "NORAD_CAT_ID": 30174, "ELEMENT_SET_NO": 999, "REV_AT_EPOCH": 98214, "BSTAR": 0.0054172786, "MEAN_MOTION_DOT": 0.00041172, "MEAN_MOTION_DDOT": 0}, "tle": {"line1": "1 30174U 99025UF  25336.33269536  .00041172  00000+0  54173-2 0  9992", "line2": "2 30174  98.7760 124.1947 0017891  84.6234 338.3207 14.79903137982149"}}, "geometry": {"type": "Point", "coordinates": [124.45215085812836, 0.6402879510324238]}}, {"type": "Feature", "properties": {"norad_id": 30175, "name": "FENGYUN 1C DEB", "group": "fengyun-1c-debris", "lat": -19.641404332890524, "lon": 36.13106993766712, "alt_km": 973.6231503375848, "timestamp": "2025-12-02T15:49:07.464116+00:00", "meta": {"OBJECT_NAME": "FENGYUN 1C DEB", "OBJECT_ID": "1999-025UG", "EPOCH": "2025-12-02T02:20:13.261344", "MEAN_MOTION": 13.83850181, "ECCENTRICITY": 0.01459289, "INCLINATION": 99.3826, "RA_OF_ASC_NODE": 32.1875, "ARG_OF_PERICENTER": 240.9872, "MEAN_ANOMALY": 180.5487, "EPHEMERIS_TYPE": 0, "CLASSIFICATION_TYPE": "U", "NORAD_CAT_ID": 30175, "ELEMENT_SET_NO": 999, "REV_AT_EPOCH": 95193, "BSTAR": 0.00046525115, "MEAN_MOTION_DOT": 5.14e-06, "MEAN_MOTION_DDOT": 0}, "tle": {"line1": "1 30175U 99025UG  25336.09737571  .00000514  00000+0  46525-3 0  9993", "line2": "2 30175  99.3826  32.1875 0145928 240.9872 180.5487 13.83850181951930"}}, "geometry": {"type": "Point", "coordinates": [36.13106993766712, -19.641404332890524]}}, {"type": "Feature", "properties": {"norad_id": 30177, "name": "FENGYUN 1C DEB", "group": "fengyun-1c-debris", "lat": -6.589158603971373, "lon": 100.41817728837172, "alt_km": 716.6441480748717, "timestamp": "2025-12-02T15:49:07.464126+00:00", "meta": {"OBJECT_NAME": "FENGYUN 1C DEB", "OBJECT_ID": "1999-025UJ", "EPOCH": "2025-12-01T15:05:53.268864", "MEAN_MOTION": 13.62778225, "ECCENTRICITY": 0.0451163, "INCLINATION": 98.6254, "RA_OF_ASC_NODE": 280.507, "ARG_OF_PERICENTER": 167.6764, "MEAN_ANOMALY": 6.43, "EPHEMERIS_TYPE": 0, "CLASSIFICATION_TYPE": "U", "NORAD_CAT_ID": 30177, "ELEMENT_SET_NO": 999, "REV_AT_EPOCH": 93311, "BSTAR": 0.0006553947, "MEAN_MOTION_DOT": 9.82e-06, "MEAN_MOTION_DDOT": 0}, "tle": {"line1": "1 30177U 99025UJ  25335.62908876  .00000982  00000+0  65539-3 0  9996", "line2": "2 30177  98.6254 280.5070 0451163 167.6764   6.4300 13.62778225933116"}}, "geometry": {"type": "Point", "coordinates": [100.41817728837172, -6.589158603971373]}}, {"type": "Feature", "properties": {"norad_id": 30178, "name": "FENGYUN 1C DEB", "group": "fengyun-1c-debris", "lat": -41.86622006165392, "lon": 16.354650678013286, "alt_km": 979.664021059546, "timestamp": "2025-12-02T15:49:07.464137+00:00", "meta": {"OBJECT_NAME": "FENGYUN 1C DEB", "OBJECT_ID": "1999-025UK", "EPOCH": "2025-12-02T04:44:59.908704", "MEAN_MOTION": 13.5864155, "ECCENTRICITY": 0.02804792, "INCLINATION": 102.26, "RA_OF_ASC_NODE": 207.0162, "ARG_OF_PERICENTER": 151.3896, "MEAN_ANOMALY": 333.8275, "EPHEMERIS_TYPE": 0, "CLASSIFICATION_TYPE": "U", "NORAD_CAT_ID": 30178, "ELEMENT_SET_NO": 999, "REV_AT_EPOCH": 93028, "BSTAR": 0.0015734585, "MEAN_MOTION_DOT": 1.423e-05, "MEAN_MOTION_DDOT": 0}, "tle": {"line1": "1 30178U 99025UK  25336.19791561  .00001423  00000+0  15735-2 0  9994", "line2": "2 30178 102.2600 207.0162 0280479 151.3896 333.8275 13.58641550930284"}}, "geometry": {"type": "Point", "coordinates": [16.354650678013286, -41.86622006165392]}}, {"type": "Feature", "properties": {"norad_id": 30181, "name": "FENGYUN 1C DEB", "group": "fengyun-1c-debris", "lat": 21.15242640890361, "lon": -116.824579398378, "alt_km": 812.3494058429069, "timestamp": "2025-12-02T15:49:07.464148+00:00", "meta": {"OBJECT_NAME": "FENGYUN 1C DEB", "OBJECT_ID": "1999-025UN", "EPOCH": "2025-12-02T05:15:08.468064", "MEAN_MOTION": 14.29113085, "ECCENTRICITY": 0.00404766, "INCLINATION": 98.8446, "RA_OF_ASC_NODE": 59.275, "ARG_OF_PERICENTER": 31.661, "MEAN_ANOMALY": 22.6421, "EPHEMERIS_TYPE": 0, "CLASSIFICATION_TYPE": "U", "NORAD_CAT_ID": 30181, "ELEMENT_SET_NO": 999, "REV_AT_EPOCH": 97361, "BSTAR": 0.0019151618, "MEAN_MOTION_DOT": 4.856e-05, "MEAN_MOTION_DDOT": 0}, "tle": {"line1": "1 30181U 99025UN  25336.21884801  .00004856  00000+0  19152-2 0  9991", "line2": "2 30181  98.8446  59.2750 0040476  31.6610  22.6421 14.29113085973617"}}, "geometry": {"type": "Point", "coordinates": [-116.824579398378, 21.15242640890361]}}, {"type": "Feature", "properties": {"norad_id": 30182, "name": "FENGYUN 1C DEB", "group": "fengyun-1c-debris", "lat": 50.776227549208336, "lon": -140.93152444895304, "alt_km": 889.5477171366865, "timestamp": "2025-12-02T15:49:07.464159+00:00", "meta": {"OBJECT_NAME": "FENGYUN 1C DEB", "OBJECT_ID": "1999-025UP", "EPOCH": "2025-12-02T03:18:07.098624", "MEAN_MOTION": 13.96447941, "ECCENTRICITY": 0.00754377, "INCLINATION": 99.0671, "RA_OF_ASC_NODE": 27.2734, "ARG_OF_PERICENTER": 51.7027, "MEAN_ANOMALY": 335.2891, "EPHEMERIS_TYPE": 0, "CLASSIFICATION_TYPE": "U", "NORAD_CAT_ID": 30182, "ELEMENT_SET_NO": 999, "REV_AT_EPOCH": 96160, "BSTAR": 0.0001913529, "MEAN_MOTION_DOT": 2.27e-06, "MEAN_MOTION_DDOT": 0}, "tle": {"line1": "1 30182U 99025UP  25336.13758216  .00000227  00000+0  19135-3 0  9993", "line2": "2 30182  99.0671  27.2734 0075437  51.7027 335.2891 13.96447941961602"}}, "geometry": {"type": "Point", "coordinates": [-140.93152444895304, 50.776227549208336]}}, {"type": "Feature", "properties": {"norad_id": 30183, "name": "FENGYUN 1C DEB", "group": "fengyun-1c-debris", "lat": 62.16082965180855, "lon": 2.051875764093586, "alt_km": 858.6568363206479, "timestamp": "2025-12-02T15:49:07.464170+00:00", "meta": {"OBJECT_NAME": "FENGYUN 1C DEB", "OBJECT_ID": "1999-025UQ", "EPOCH": "2025-12-02T02:03:23.446656", "MEAN_MOTION": 14.12627462, "ECCENTRICITY": 0.0025663, "INCLINATION": 98.7899, "RA_OF_ASC_NODE": 18.5256, "ARG_OF_PERICENTER": 284.3596, "MEAN_ANOMALY": 104.4741, "EPHEMERIS_TYPE": 0, "CLASSIFICATION_TYPE": "U", "NORAD_CAT_ID": 30183, "ELEMENT_SET_NO": 999, "REV_AT_EPOCH": 96993, "BSTAR": 0.00060386092, "MEAN_MOTION_DOT": 1.078e-05, "MEAN_MOTION_DDOT": 0}, "tle": {"line1": "1 30183U 99025UQ  25336.08568804  .00001078  00000+0  60386-3 0  9999", "line2": "2 30183  98.7899  18.5256 0025663 284.3596 104.4741 14.12627462969935"}}, "geometry": {"type": "Point", "coordinates": [2.051875764093586, 62.16082965180855]}}, {"type": "Feature", "properties": {"norad_id": 30191, "name": "FENGYUN 1C DEB", "group": "fengyun-1c-debris", "lat": 36.63155088468441, "lon": -126.45747325736275, "alt_km": 694.6935675272607, "timestamp": "2025-12-02T15:49:07.464180+00:00", "meta": {"OBJECT_NAME": "FENGYUN 1C DEB", "OBJECT_ID": "1999-025UY", "EPOCH": "2025-12-02T04:04:55.980768", "MEAN_MOTION": 14.77703787, "ECCENTRICITY": 0.00975456, "INCLINATION": 98.7779, "RA_OF_ASC_NODE": 46.4132, "ARG_OF_PERICENTER": 297.1254, "MEAN_ANOMALY": 126.2289, "EPHEMERIS_TYPE": 0, "CLASSIFICATION_TYPE": "U", "NORAD_CAT_ID": 30191, "ELEMENT_SET_NO": 999, "REV_AT_EPOCH": 119, "BSTAR": 0.0012630722, "MEAN_MOTION_DOT": 9.74e-05, "MEAN_MOTION_DDOT": 0}, "tle": {"line1": "1 30191U 99025UY  25336.17009237  .00009740  00000+0  12631-2 0  9991", "line2": "2 30191  98.7779  46.4132 0097545 297.1254 126.2289 14.77703787  1195"}}, "geometry": {"type": "Point", "coordinates": [-126.45747325736275, 36.63155088468441]}}, {"type": "Feature", "properties": {"norad_id": 30193, "name": "FENGYUN 1C DEB", "group": "fengyun-1c-debris", "lat": -2.3245251610909285, "lon": 64.13214171405588, "alt_km": 660.2033848777246, "timestamp": "2025-12-02T15:49:07.464191+00:00", "meta": {"OBJECT_NAME": "FENGYUN 1C DEB", "OBJECT_ID": "1999-025VA", "EPOCH": "2025-12-02T07:14:28.911264", "MEAN_MOTION": 14.49028218, "ECCENTRICITY": 0.01066932, "INCLINATION": 98.7557, "RA_OF_ASC_NODE": 244.1199, "ARG_OF_PERICENTER": 164.4778, "MEAN_ANOMALY": 314.1096, "EPHEMERIS_TYPE": 0, "CLASSIFICATION_TYPE": "U", "NORAD_CAT_ID": 30193, "ELEMENT_SET_NO": 999, "REV_AT_EPOCH": 99015, "BSTAR": 0.00086848281, "MEAN_MOTION_DOT": 3.492e-05, "MEAN_MOTION_DDOT": 0}, "tle": {"line1": "1 30193U 99025VA  25336.30172351  .00003492  00000+0  86848-3 0  9996", "line2": "2 30193  98.7557 244.1199 0106693 164.4778 314.1096 14.49028218990158"}}, "geometry": {"type": "Point", "coordinates": [64.13214171405588, -2.3245251610909285]}}]}